ITAMSAT (IO-26)         
1 22826U 93061D   22053.82789803  .00000034  00000+0  30968-4 0  9992
2 22826  98.8953  82.2514 0009224  19.2818 340.8711 14.30488625482023
RADIO ROSTO (RS-15)     
1 23439U 94085A   22053.89794992 -.00000037  00000+0  15882-3 0  9993
2 23439  64.8164 330.9024 0167110 292.1387  66.1874 11.27571173118570
JAS-2 (FO-29)           
1 24278U 96046B   22054.11679075 -.00000053  00000+0 -16872-4 0  9994
2 24278  98.5326  93.4569 0349732 219.7977 137.7031 13.53110567260398
TECHSAT 1B (GO-32)      
1 25397U 98043D   22053.87738054  .00000025  00000+0  30630-4 0  9996
2 25397  98.8041   4.1318 0002345  82.9096 277.2349 14.23733362227125
ISS (ZARYA)             
1 25544U 98067A   22054.38847078  .00007011  00000+0  13110-3 0  9995
2 25544  51.6410 180.1432 0005504 157.2454 302.7958 15.49909665327538
PCSAT (NO-44)           
1 26931U 01043C   22053.87376942  .00000030  00000+0  43331-4 0  9997
2 26931  67.0534 354.1352 0007412 278.6064  81.4198 14.30664665 65012
SAUDISAT 1C (SO-50)     
1 27607U 02058C   22053.88644307  .00000280  00000+0  59632-4 0  9997
2 27607  64.5548 292.4312 0070193 317.3860  42.1808 14.75927901 31469
CUTE-1 (CO-55)          
1 27844U 03031E   22053.90885151  .00000141  00000+0  82800-4 0  9998
2 27844  98.6815  63.3140 0010938  75.7472 284.4920 14.22385152967581
CUBESAT XI-IV (CO-57)   
1 27848U 03031J   22053.69581827  .00000113  00000+0  71021-4 0  9993
2 27848  98.6864  63.6444 0010873  88.8728 271.3695 14.21951332967375
MOZHAYETS 4 (RS-22)     
1 27939U 03042A   22054.03439629  .00000453  00000+0  89325-4 0  9990
2 27939  98.1712 194.9254 0012490 203.9440 156.1168 14.67147770984263
CUBESAT XI-V            
1 28895U 05043F   22053.85018661  .00000536  00000+0  11092-3 0  9990
2 28895  98.0872 187.1417 0017603 139.3064 220.9458 14.64105716870640
FALCONSAT-3             
1 30776U 07006E   22054.01397628  .00017040  00000+0  34253-3 0  9996
2 30776  35.4331 285.3694 0002800 351.6425   8.4257 15.45759887831824
CUTE-1.7+APD II (CO-65) 
1 32785U 08021C   22053.81178899  .00001204  00000+0  13321-3 0  9998
2 32785  97.6439  28.4281 0011306 252.0276 107.9709 14.89096495749429
DELFI-C3 (DO-64)        
1 32789U 08021G   22053.88156263  .00006740  00000+0  40700-3 0  9991
2 32789  97.3536  84.4948 0011103   9.7306 350.4137 15.10964666754612
SEEDS II (CO-66)        
1 32791U 08021J   22053.85042309  .00001508  00000+0  15420-3 0  9994
2 32791  97.5999  34.0938 0012116 205.8516 154.2099 14.91945226750103
YUBILEINY (RS-30)       
1 32953U 08025A   22054.17378849  .00000021  00000+0  80971-4 0  9998
2 32953  82.4987 254.9886 0019596 148.2107 212.0161 12.43107380624135
KKS-1 (KISEKI)          
1 33499U 09002H   22053.80394776  .00000445  00000+0  72728-4 0  9997
2 33499  98.2355 293.8466 0008391 329.4659  30.6060 14.75824026703339
SWISSCUBE               
1 35932U 09051B   22053.53503816  .00000371  00000+0  93982-4 0  9995
2 35932  98.5823 266.1764 0008393  46.1985 313.9905 14.56696183659365
BEESAT-1                
1 35933U 09051C   22053.83568595  .00000319  00000+0  82403-4 0  9992
2 35933  98.5768 268.1878 0006720  58.1220 302.0631 14.56734298659487
ITUPSAT1                
1 35935U 09051E   22053.85229850  .00000291  00000+0  77541-4 0  9990
2 35935  98.5872 268.2892 0009059  58.7902 301.4181 14.55856004659205
XIWANG-1 (HOPE-1)       
1 36122U 09072B   22053.88596208 -.00000004  00000+0  10305-3 0  9996
2 36122 100.1686  29.5249 0006876 243.1752 116.8659 13.16365993585730
JUGNU                   
1 37839U 11058B   22053.93632047  .00000376  00000+0  58242-4 0  9991
2 37839  19.9604 150.0434 0018955 334.7655 180.6543 14.12751315536033
SRMSAT                  
1 37841U 11058D   22053.81269537  .00000343  00000+0  42972-4 0  9998
2 37841  19.9706 227.8656 0011846 164.2619 225.6140 14.10726993535030
M-CUBED & EXP-1 PRIME   
1 37855U 11061F   22054.13625726  .00005519  00000+0  25885-3 0  9992
2 37855 101.7129 113.1710 0160694  44.1728 317.2188 15.09747444564445
STRAND-1                
1 39090U 13009E   22053.82969083  .00000078  00000+0  42153-4 0  9994
2 39090  98.4110 254.9019 0008030 250.6889 109.3428 14.35246393470957
SOMP                    
1 39134U 13015E   22053.80225624  .00010018  00000+0  40105-3 0  9993
2 39134  64.8627  77.1524 0030641 299.3730  60.4341 15.25093557489357
BEESAT-3                
1 39135U 13015F   22053.57618886  .00006413  00000+0  29052-3 0  9996
2 39135  64.8663 111.4696 0031620 308.9379  50.8932 15.21294108488623
BEESAT-2                
1 39136U 13015G   22053.88618036  .00005284  00000+0  24913-3 0  9994
2 39136  64.8751 117.9784 0010956 273.7644  86.2231 15.20520951488963
ZACUBE-1 (TSHEPISOSAT)  
1 39417U 13066B   22053.93245894  .00001176  00000+0  15057-3 0  9991
2 39417  97.6234  30.7286 0059691  60.8381 299.8788 14.81864387446161
GOMX-1                  
1 39430U 13066Q   22054.14185453  .00000890  00000+0  16731-3 0  9996
2 39430  97.8160 327.8578 0151204  45.5439 315.8019 14.59869234439616
CUBEBUG-2 (LO-74)       
1 39440U 13066AA  22054.15179188  .00000771  00000+0  11185-3 0  9992
2 39440  97.7120  16.6488 0080262 141.3991 219.2996 14.76568694444610
FUNCUBE-1 (AO-73)       
1 39444U 13066AE  22053.89367738  .00001490  00000+0  18491-3 0  9992
2 39444  97.6123  33.0860 0058526  50.1672 310.4671 14.82845591444541
UWE-3                   
1 39446U 13066AG  22053.89714618  .00000934  00000+0  12763-3 0  9995
2 39446  97.6711  23.0476 0070759 102.5118 258.4022 14.79110837443529
SPROUT                  
1 39770U 14029E   22054.02884806  .00003892  00000+0  41446-3 0  9994
2 39770  97.9289 170.4915 0009578 102.7634 257.4633 14.89474656420629
UNISAT-6                
1 40012U 14033C   22054.12470838  .00000819  00000+0  12689-3 0  9990
2 40012  97.6628 248.2005 0058054 167.9502 192.3112 14.74585022413139
DUCHIFAT-1              
1 40021U 14033M   22053.82469464  .00001832  00000+0  18634-3 0  9991
2 40021  98.0004   2.1191 0014117  61.8919 298.3724 14.91988630417604
QB50P1                  
1 40025U 14033R   22053.77171129  .00001539  00000+0  16581-3 0  9990
2 40025  97.9521 350.4003 0013786  76.1927 284.0823 14.89889975416688
NUDT-PHONESAT           
1 40900U 15049B   22054.01367841  .00014489  00000+0  49646-3 0  9992
2 40900  97.4106  71.8468 0009815 344.8529  66.8023 15.30260250357086
ZDPS 2A                 
1 40901U 15049C   22054.03681296  .00006962  00000+0  31243-3 0  9999
2 40901  97.4629  63.6083 0013534  34.2030  50.7666 15.21423429356048
ZDPS 2B                 
1 40902U 15049D   22054.26513024  .00007434  00000+0  33244-3 0  9996
2 40902  97.4698  61.3656 0013524  31.2236  25.1572 15.21520149356050
XW-2A                   
1 40903U 15049E   22054.07314103  .00012498  00000+0  23368-3 0  9995
2 40903  97.2008 112.7286 0011404 170.4731 276.1711 15.48795530361534
KAITUO 1A               
1 40904U 15049F   22054.08924924  .00002309  00000+0  12017-3 0  9994
2 40904  97.4947  57.7877 0015625  52.2834  34.4497 15.16939719355525
2015-049G               
1 40905U 15049G   22054.06158176  .00002419  00000+0  13031-3 0  9990
2 40905  97.5117  54.8977 0016746  53.6389  17.4016 15.15653691355282
XW-2C                   
1 40906U 15049H   22054.05780244  .00003727  00000+0  18744-3 0  9996
2 40906  97.4932  58.5022 0015543  42.6602  29.5809 15.17751498355560
XW-2D                   
1 40907U 15049J   22054.25104257  .00004243  00000+0  21024-3 0  9992
2 40907  97.4924  58.5936 0014828  38.5108  16.6229 15.18211838355637
LILACSAT-2              
1 40908U 15049K   22054.25090745  .00002249  00000+0  12355-3 0  9990
2 40908  97.5149  56.0446 0017119  55.7534   0.3142 15.15031065355191
XW-2E                   
1 40909U 15049L   22054.09499257  .00006158  00000+0  27826-3 0  9996
2 40909  97.4678  62.7652 0013301  23.9532  47.7685 15.21239418356013
XW-2F                   
1 40910U 15049M   22054.24413255  .00006214  00000+0  28482-3 0  9991
2 40910  97.4759  62.0234 0014588  22.9057  33.2171 15.20731057355815
XW-2B                   
1 40911U 15049N   22054.26871620  .00004126  00000+0  20509-3 0  9990
2 40911  97.4920  59.2470 0014840  39.4997  17.3830 15.18115768355528
KAITUO 1B               
1 40912U 15049P   22054.26923817  .00007051  00000+0  29767-3 0  9992
2 40912  97.4421  66.4163 0013338 352.1011  63.4768 15.23504117356357
TIANWANG 1A (TW-1A)     
1 40928U 15051D   22054.21170654  .00020827  00000+0  35347-3 0  9997
2 40928  97.0541  78.5169 0011043  88.1978 336.1907 15.51439357360480
LAPAN-A2                
1 40931U 15052B   22054.20602678  .00000654  00000+0  18079-5 0  9998
2 40931   5.9957 264.0081 0013901 351.6817 143.1684 14.76734925346424
E-ST@R-II               
1 41459U 16025D   22054.06670109  .00005907  00000+0  27679-3 0  9993
2 41459  98.1702 211.1061 0152523 297.1963  61.3756 15.10355188320212
AAUSAT 4                
1 41460U 16025E   22053.97516196  .00010811  00000+0  46609-3 0  9993
2 41460  98.1658 216.3013 0137214 276.6040  81.9587 15.14560839320581
NUSAT-1 (FRESCO)        
1 41557U 16033B   22054.22034615  .00007894  00000+0  25966-3 0  9999
2 41557  97.3875 152.0280 0013272  67.1635 346.7283 15.31712678319887
BEESAT-4                
1 41619U 16040W   22053.87937318  .00007811  00000+0  28915-3 0  9994
2 41619  97.2352 107.7467 0010762 156.4640 203.7094 15.27877282303218
CAS-2T & KS-1Q          
1 41847U 16066G   22053.78175959  .00000635  00000+0  10541-3 0  9993
2 41847  98.5669 118.5157 0364510 192.6071 166.5812 14.38376900277862
NAYIF-1 (EO-88)         
1 42017U 17008BX  22053.65614109  .00010376  00000+0  35011-3 0  9993
2 42017  97.2842 121.6864 0004213 306.7028  53.3826 15.30874430279495
ZHUHAI-1 02 (CAS-4B)    
1 42759U 17034B   22054.26177269  .00001919  00000+0  12611-3 0  9998
2 42759  43.0168 241.6487 0009579 290.6584 238.3520 15.10941360259073
